[{"OBJECT_NAME":"STARLINK-35245","OBJECT_ID":"2025-207H","EPOCH":"2026-03-09T17:44:36.315744","MEAN_MOTION":15.056491,"ECCENTRICITY":8.519e-5,"INCLINATION":97.6029,"RA_OF_ASC_NODE":138.7863,"ARG_OF_PERICENTER":126.3755,"MEAN_ANOMALY":233.7551,"EPHEMERIS_TYPE":0,"CLASSIFICATION_TYPE":"U","NORAD_CAT_ID":65599,"ELEMENT_SET_NO":999,"REV_AT_EPOCH":2827,"BSTAR":0.00046077597,"MEAN_MOTION_DOT":6.594e-5,"MEAN_MOTION_DDOT":0},{"OBJECT_NAME":"ALOUETTE 2","OBJECT_ID":"1965-098A","EPOCH":"2026-03-09T21:10:26.401728","MEAN_MOTION":12.28241401,"ECCENTRICITY":0.13308103,"INCLINATION":79.8058,"RA_OF_ASC_NODE":1.1474,"ARG_OF_PERICENTER":73.8807,"MEAN_ANOMALY":300.4362,"EPHEMERIS_TYPE":0,"CLASSIFICATION_TYPE":"U","NORAD_CAT_ID":1804,"ELEMENT_SET_NO":999,"REV_AT_EPOCH":66708,"BSTAR":0.00035342687,"MEAN_MOTION_DOT":1.098e-5,"MEAN_MOTION_DDOT":0}]
